     2.100          NAVIGATION                              RINEX VERSION / TYPE
fic2rin                                 03/29/2010 00:22:13 PGM / RUN BY / DATE
                                                            END OF HEADER
 2 10  3 28 19 59 44.0  .240956898779D-03  .386535248253D-11  .000000000000D+00
     .200000000000D+01  .103562500000D+03  .487091717897D-08  .251895489066D+01
     .542588531971D-05  .944519438781D-02  .112596899271D-04  .515380392838D+04
     .719840000000D+05 -.115483999252D-06  .357544700898D+00  .173225998878D-06
     .940532404104D+00  .145312500000D+03  .300274138160D+01 -.825855828782D-08
     .607168148133D-09  .100000000000D+01  .157700000000D+04  .000000000000D+00
     .240000000000D+01  .000000000000D+00 -.172294676304D-07  .200000000000D+01
     .648060000000D+05  .400000000000D+01
 3 10  3 28 20  0  0.0  .534441787750D-03  .534328137292D-11  .000000000000D+00
     .760000000000D+02 -.888750000000D+02  .506128225129D-08  .242351221191D+01
    -.466965138912D-05  .129283097340D-01  .984407961369D-05  .515370777130D+04
     .720000000000D+05  .298023223877D-07 -.793599150487D+00 -.204890966415D-06
     .927132324657D+00  .172093750000D+03  .984675875223D+00 -.826498712703D-08
    -.422874757288D-09  .100000000000D+01  .157700000000D+04  .000000000000D+00
     .340000000000D+01  .000000000000D+00 -.419095158577D-08  .760000000000D+02
     .648060000000D+05  .400000000000D+01
 4 10  3 28 20  0  0.0  .473037362099D-04  .875388650456D-11  .000000000000D+00
     .300000000000D+02  .101531250000D+03  .496092092798D-08 -.705514112889D+00
     .551715493202D-05  .910014496185D-02  .104494392872D-04  .515366613579D+04
     .720000000000D+05  .180676579475D-06  .375479495771D+00  .126659870148D-06
     .939670702931D+00  .164250000000D+03  .600700964006D+00 -.845749514576D-08
     .623597403906D-09  .100000000000D+01  .157700000000D+04  .000000000000D+00
     .240000000000D+01  .000000000000D+00 -.605359673500D-08  .300000000000D+02
     .648060000000D+05  .400000000000D+01
 5 10  3 28 20  0  0.0 -.250851735473D-05  .795807864051D-12  .000000000000D+00
     .810000000000D+02 -.540625000000D+01  .532236455499D-08 -.226021810236D+01
    -.452622771263D-06  .189348321874D-02  .229291617870D-05  .515366657639D+04
     .720000000000D+05 -.186264514923D-08  .141704938593D+01 -.521540641785D-07
     .958710845058D+00  .335250000000D+03  .348104999628D+00 -.874179270218D-08
    -.964325882329D-11  .100000000000D+01  .157700000000D+04  .000000000000D+00
     .240000000000D+01  .000000000000D+00 -.884756445885D-08  .810000000000D+02
     .648060000000D+05  .400000000000D+01
 6 10  3 28 20  0  0.0  .679333694279D-03 -.818545231596D-11  .000000000000D+00
     .360000000000D+02 -.713125000000D+02  .492449083910D-08 -.161478131122D+01
    -.355578958988D-05  .615789426956D-02  .107605010271D-04  .515367121696D+04
     .720000000000D+05 -.109896063805D-06 -.723479354013D+00  .122934579849D-06
     .934555628885D+00  .161375000000D+03 -.111396954791D+01 -.835820529566D-08
    -.363586573412D-09  .100000000000D+01  .157700000000D+04  .000000000000D+00
     .240000000000D+01  .000000000000D+00 -.465661287308D-08  .360000000000D+02
     .648060000000D+05  .400000000000D+01
 7 10  3 28 20  0  0.0  .111944973469D-05 -.454747350886D-12  .000000000000D+00
     .310000000000D+02  .863125000000D+02  .423624788530D-08  .895835604703D+00
     .446289777756D-05  .331041647587D-02  .105537474155D-04  .515372399712D+04
     .720000000000D+05  .689178705215D-07 -.276611098392D+01  .726431608200D-07
     .971224916948D+00  .177968750000D+03  .305858905901D+01 -.800354766560D-08
     .431803700643D-09  .100000000000D+01  .157700000000D+04  .000000000000D+00
     .240000000000D+01  .000000000000D+00 -.107102096081D-07  .310000000000D+02
     .648060000000D+05  .400000000000D+01
 8 10  3 28 20  0  0.0  .447826460004D-05  .341060513165D-12  .000000000000D+00
     .910000000000D+02  .845000000000D+02  .383765985394D-08  .281030426594D+00
     .423565506935D-05  .109778176993D-01  .100769102573D-04  .515370630836D+04
     .720000000000D+05  .197440385818D-06 -.269947492497D+01  .167638063431D-07
     .992529492414D+00  .199281250000D+03  .309360227407D+01 -.793247327650D-08
     .481448625696D-09  .100000000000D+01  .157700000000D+04  .000000000000D+00
     .340000000000D+01  .000000000000D+00 -.419095158577D-08  .910000000000D+02
     .648060000000D+05  .400000000000D+01
10 10  3 28 20  0  0.0 -.389441847801D-04 -.909494701773D-12  .000000000000D+00
     .670000000000D+02 -.139375000000D+02  .539415325956D-08 -.221792099185D+01
    -.953674316406D-06  .917601864785D-02  .209175050259D-05  .515346931267D+04
     .720000000000D+05  .104308128357D-06  .144316545215D+01 -.912696123123D-07
     .953741051943D+00  .333906250000D+03  .663086529107D+00 -.872214902680D-08
     .378587198248D-10  .100000000000D+01  .157700000000D+04  .000000000000D+00
     .340000000000D+01  .000000000000D+00 -.279396772385D-08  .670000000000D+02
     .648060000000D+05  .400000000000D+01
11 10  3 28 20  0  0.0 -.532488338649D-04 -.216004991671D-11  .000000000000D+00
     .108000000000D+03  .742812500000D+02  .602310802948D-08  .795284091255D+00
     .386685132980D-05  .105414794525D-01  .117551535368D-04  .515373904800D+04
     .720000000000D+05 -.158324837685D-06  .142075192333D+00  .111758708954D-06
     .889083251760D+00  .115562500000D+03  .797637496346D+00 -.889001316187D-08
     .253224833545D-09  .100000000000D+01  .157700000000D+04  .000000000000D+00
     .240000000000D+01  .000000000000D+00 -.116415321827D-07  .108000000000D+03
     .648060000000D+05  .400000000000D+01
12 10  3 28 20  0  0.0 -.133249443024D-03  .454747350886D-11  .000000000000D+00
     .290000000000D+02 -.690625000000D+01  .493163399378D-08  .948684601413D+00
    -.474974513054D-06  .352181319613D-02  .261701643467D-05  .515371484184D+04
     .720000000000D+05  .838190317154D-07 -.171252055630D+01  .242143869400D-07
     .969717251130D+00  .331468750000D+03 -.510858107451D+00 -.855464204946D-08
    -.101432796512D-09  .100000000000D+01  .157700000000D+04  .000000000000D+00
     .240000000000D+01  .000000000000D+00 -.121071934700D-07  .290000000000D+02
     .648060000000D+05  .400000000000D+01
13 10  3 28 20  0  0.0  .305760651827D-03 -.227373675443D-12  .000000000000D+00
     .230000000000D+02 -.663125000000D+02  .373872716156D-08 -.287020245630D+01
    -.335089862347D-05  .432023406029D-02  .122673809528D-04  .515357139969D+04
     .720000000000D+05  .113621354103D-06  .253508173530D+01  .800937414169D-07
     .993381225264D+00  .161093750000D+03  .165071782362D+01 -.758067290831D-08
    -.411088552060D-09  .100000000000D+01  .157700000000D+04  .000000000000D+00
     .240000000000D+01  .000000000000D+00 -.111758708954D-07  .230000000000D+02
     .648060000000D+05  .400000000000D+01
14 10  3 28 20  0  0.0  .269892625511D-04  .488853402203D-11  .000000000000D+00
     .840000000000D+02 -.846562500000D+02  .384230290448D-08 -.305724375077D+01
    -.425428152084D-05  .494541518856D-02  .117029994726D-04  .515372499084D+04
     .720000000000D+05  .223517417908D-07  .251366936033D+01 -.875443220139D-07
     .986663193842D+00  .165406250000D+03 -.211199759201D+01 -.762924636016D-08
    -.455018953366D-09  .100000000000D+01  .157700000000D+04  .000000000000D+00
     .340000000000D+01  .000000000000D+00 -.884756445885D-08  .840000000000D+02
     .648060000000D+05  .400000000000D+01
15 10  3 28 20  0  0.0 -.293262302876D-03  .432009983342D-11  .000000000000D+00
     .121000000000D+03 -.956875000000D+02  .464697927963D-08 -.311332439789D+01
    -.491552054882D-05  .245530134998D-02  .118594616652D-04  .515374539185D+04
     .720000000000D+05 -.204890966415D-07  .245154516456D+01 -.558793544769D-08
     .954270277187D+00  .147281250000D+03 -.207313411116D+00 -.809176562595D-08
    -.535022285826D-09  .100000000000D+01  .157700000000D+04  .000000000000D+00
     .340000000000D+01  .000000000000D+00 -.977888703346D-08  .121000000000D+03
     .648060000000D+05  .400000000000D+01
16 10  3 28 20  0  0.0 -.558299943805D-04 -.386535248253D-11  .000000000000D+00
     .860000000000D+02 -.154062500000D+02  .472483966568D-08 -.137543198227D+01
    -.843778252602D-06  .583188154269D-02  .309757888317D-05  .515372828674D+04
     .720000000000D+05 -.447034835815D-07 -.169516199316D+01 -.614672899246D-07
     .970972619170D+00  .327250000000D+03 -.259638250130D+00 -.844463746733D-08
    -.207151485834D-10  .100000000000D+01  .157700000000D+04  .000000000000D+00
     .240000000000D+01  .000000000000D+00 -.977888703346D-08  .860000000000D+02
     .648060000000D+05  .400000000000D+01
17 10  3 28 20  0  0.0  .140358228236D-03  .284217094304D-11  .000000000000D+00
     .970000000000D+02 -.686875000000D+02  .416160191885D-08 -.262851261935D+01
    -.359676778316D-05  .530078774318D-02  .129789113998D-04  .515359246635D+04
     .720000000000D+05  .186264514923D-07 -.651765914564D+00 -.689178705215D-07
     .960343133941D+00  .127406250000D+03 -.253788028296D+01 -.786818488434D-08
    -.393587823084D-09  .100000000000D+01  .157700000000D+04  .000000000000D+00
     .340000000000D+01  .000000000000D+00 -.102445483208D-07  .970000000000D+02
     .648060000000D+05  .400000000000D+01
18 10  3 28 20  0  0.0  .582095235586D-04  .250111042988D-11  .000000000000D+00
     .570000000000D+02 -.675000000000D+01  .572845289877D-08 -.114222175248D+01
    -.203028321266D-06  .110835970845D-01  .174343585968D-05  .515367056465D+04
     .720000000000D+05  .260770320892D-06  .144400189019D+01  .156462192535D-06
     .937734397727D+00  .331312500000D+03 -.234808669684D+01 -.893037198584D-08
    -.103575742917D-10  .100000000000D+01  .157700000000D+04  .000000000000D+00
     .240000000000D+01  .000000000000D+00 -.107102096081D-07  .570000000000D+02
     .648060000000D+05  .400000000000D+01
